STARLINK-30769          
1 58138U 23162W   25234.10870969  .00000585  00000+0  58408-4 0  9991
2 58138  43.0028 137.9033 0001350 266.5773  93.4915 15.02532088102272
STARLINK-30775          
1 58139U 23162X   25234.11204154 -.00000580  00000+0 -27835-4 0  9997
2 58139  43.0026 137.9249 0001046 272.4465  87.6258 15.02535716102272
STARLINK-30780          
1 58140U 23162Y   25233.97243048 -.00000459  00000+0 -18919-4 0  9995
2 58140  43.0021 138.5970 0000908 265.5545  94.5194 15.02530599102253
STARLINK-30802          
1 58150U 23166A   25232.83883287  .00000647  00000+0  33981-4 0  9992
2 58150  53.1602  72.8477 0001271  84.1783 275.9363 15.30189011102428
STARLINK-30834          
1 58151U 23166B   25232.84301928  .00000123  00000+0  16278-4 0  9990
2 58151  53.1607  72.6704 0001155  74.0514 286.0614 15.30194688102424
STARLINK-30833          
1 58152U 23166C   25234.27364485  .00000676  00000+0  34939-4 0  9994
2 58152  53.1616  66.1613 0001288  96.5560 263.5588 15.30193054102649
STARLINK-30831          
1 58153U 23166D   25232.81983891 -.00000317  00000+0  14354-5 0  9994
2 58153  53.1604  72.7462 0001079  88.1438 271.9686 15.30191024102424
STARLINK-30797          
1 58154U 23166E   25232.84618537 -.00000198  00000+0  54311-5 0  9994
2 58154  53.1602  72.6825 0001021  73.9587 286.1526 15.30193994102271
STARLINK-30804          
1 58155U 23166F   25232.83039284 -.00000543  00000+0 -62090-5 0  9998
2 58155  53.1609  72.8086 0001247  75.9222 284.1918 15.30189509102425
STARLINK-30784          
1 58156U 23166G   25232.83988970  .00003610  00000+0  13387-3 0  9993
2 58156  53.1597  72.8598 0001038  71.1974 288.9140 15.30217557102277
STARLINK-30803          
1 58157U 23166H   25234.51488310  .00029965  00000+0  10246-2 0  9995
2 58157  53.1611  64.8204 0001063 141.0987 219.0091 15.30047589102534
STARLINK-30829          
1 58158U 23166J   25234.53173735  .00000699  00000+0  35727-4 0  9996
2 58158  53.1604  64.9421 0001164  77.0783 283.0348 15.30191958102685
STARLINK-30788          
1 58159U 23166K   25232.82722786  .00000042  00000+0  13546-4 0  9990
2 58159  53.1612  72.7948 0001272  51.1226 308.9888 15.30198364102270
STARLINK-30779          
1 58160U 23166L   25232.82301688  .00000104  00000+0  15646-4 0  9998
2 58160  53.1607  72.7653 0000992  75.7805 284.3306 15.30187668102426
STARLINK-30773          
1 58161U 23166M   25232.87249252  .00004620  00000+0  16823-3 0  9996
2 58161  53.1603  72.3427 0001150  98.2185 261.8947 15.30158382102439
STARLINK-30816          
1 58162U 23166N   25234.56750584  .00001188  00000+0  52245-4 0  9995
2 58162  53.1597  64.4541 0000999  91.6130 268.4985 15.30192506102697
