[{"OBJECT_NAME":"STARLINK-30769","OBJECT_ID":"2023-162W","EPOCH":"2025-08-22T02:36:32.517216","MEAN_MOTION":15.02532088,"ECCENTRICITY":0.00013506,"INCLINATION":43.0028,"RA_OF_ASC_NODE":137.9033,"ARG_OF_PERICENTER":266.5773,"MEAN_ANOMALY":93.4915,"EPHEMERIS_TYPE":0,"CLASSIFICATION_TYPE":"U","NORAD_CAT_ID":58138,"ELEMENT_SET_NO":999,"REV_AT_EPOCH":10227,"BSTAR":5.8407661e-5,"MEAN_MOTION_DOT":5.85e-6,"MEAN_MOTION_DDOT":0},{"OBJECT_NAME":"STARLINK-30775","OBJECT_ID":"2023-162X","EPOCH":"2025-08-22T02:41:20.389056","MEAN_MOTION":15.02535716,"ECCENTRICITY":0.00010469,"INCLINATION":43.0026,"RA_OF_ASC_NODE":137.9249,"ARG_OF_PERICENTER":272.4465,"MEAN_ANOMALY":87.6258,"EPHEMERIS_TYPE":0,"CLASSIFICATION_TYPE":"U","NORAD_CAT_ID":58139,"ELEMENT_SET_NO":999,"REV_AT_EPOCH":10227,"BSTAR":-2.7835266e-5,"MEAN_MOTION_DOT":-5.8e-6,"MEAN_MOTION_DDOT":0},{"OBJECT_NAME":"STARLINK-30780","OBJECT_ID":"2023-162Y","EPOCH":"2025-08-21T23:20:17.993472","MEAN_MOTION":15.02530599,"ECCENTRICITY":9.088e-5,"INCLINATION":43.0021,"RA_OF_ASC_NODE":138.597,"ARG_OF_PERICENTER":265.5545,"MEAN_ANOMALY":94.5194,"EPHEMERIS_TYPE":0,"CLASSIFICATION_TYPE":"U","NORAD_CAT_ID":58140,"ELEMENT_SET_NO":999,"REV_AT_EPOCH":10225,"BSTAR":-1.8918639e-5,"MEAN_MOTION_DOT":-4.59e-6,"MEAN_MOTION_DDOT":0},{"OBJECT_NAME":"STARLINK-30802","OBJECT_ID":"2023-166A","EPOCH":"2025-08-20T20:07:55.159968","MEAN_MOTION":15.30189011,"ECCENTRICITY":0.0001271,"INCLINATION":53.1602,"RA_OF_ASC_NODE":72.8477,"ARG_OF_PERICENTER":84.1783,"MEAN_ANOMALY":275.9363,"EPHEMERIS_TYPE":0,"CLASSIFICATION_TYPE":"U","NORAD_CAT_ID":58150,"ELEMENT_SET_NO":999,"REV_AT_EPOCH":10242,"BSTAR":3.3981e-5,"MEAN_MOTION_DOT":6.47e-6,"MEAN_MOTION_DDOT":0},{"OBJECT_NAME":"STARLINK-30834","OBJECT_ID":"2023-166B","EPOCH":"2025-08-20T20:13:56.865792","MEAN_MOTION":15.30194688,"ECCENTRICITY":0.0001155,"INCLINATION":53.1607,"RA_OF_ASC_NODE":72.6704,"ARG_OF_PERICENTER":74.0514,"MEAN_ANOMALY":286.0614,"EPHEMERIS_TYPE":0,"CLASSIFICATION_TYPE":"U","NORAD_CAT_ID":58151,"ELEMENT_SET_NO":999,"REV_AT_EPOCH":10242,"BSTAR":1.6278e-5,"MEAN_MOTION_DOT":1.23e-6,"MEAN_MOTION_DDOT":0},{"OBJECT_NAME":"STARLINK-30833","OBJECT_ID":"2023-166C","EPOCH":"2025-08-22T06:34:02.915040","MEAN_MOTION":15.30193054,"ECCENTRICITY":0.00012886,"INCLINATION":53.1616,"RA_OF_ASC_NODE":66.1613,"ARG_OF_PERICENTER":96.556,"MEAN_ANOMALY":263.5588,"EPHEMERIS_TYPE":0,"CLASSIFICATION_TYPE":"U","NORAD_CAT_ID":58152,"ELEMENT_SET_NO":999,"REV_AT_EPOCH":10264,"BSTAR":3.4938695e-5,"MEAN_MOTION_DOT":6.76e-6,"MEAN_MOTION_DDOT":0},{"OBJECT_NAME":"STARLINK-30831","OBJECT_ID":"2023-166D","EPOCH":"2025-08-20T19:40:34.081824","MEAN_MOTION":15.30191024,"ECCENTRICITY":0.0001079,"INCLINATION":53.1604,"RA_OF_ASC_NODE":72.7462,"ARG_OF_PERICENTER":88.1438,"MEAN_ANOMALY":271.9686,"EPHEMERIS_TYPE":0,"CLASSIFICATION_TYPE":"U","NORAD_CAT_ID":58153,"ELEMENT_SET_NO":999,"REV_AT_EPOCH":10242,"BSTAR":1.4354e-6,"MEAN_MOTION_DOT":-3.17e-6,"MEAN_MOTION_DDOT":0},{"OBJECT_NAME":"STARLINK-30797","OBJECT_ID":"2023-166E","EPOCH":"2025-08-20T20:18:30.415968","MEAN_MOTION":15.30193994,"ECCENTRICITY":0.0001021,"INCLINATION":53.1602,"RA_OF_ASC_NODE":72.6825,"ARG_OF_PERICENTER":73.9587,"MEAN_ANOMALY":286.1526,"EPHEMERIS_TYPE":0,"CLASSIFICATION_TYPE":"U","NORAD_CAT_ID":58154,"ELEMENT_SET_NO":999,"REV_AT_EPOCH":10227,"BSTAR":5.4311e-6,"MEAN_MOTION_DOT":-1.98e-6,"MEAN_MOTION_DDOT":0},{"OBJECT_NAME":"STARLINK-30804","OBJECT_ID":"2023-166F","EPOCH":"2025-08-20T19:55:45.941376","MEAN_MOTION":15.30189509,"ECCENTRICITY":0.0001247,"INCLINATION":53.1609,"RA_OF_ASC_NODE":72.8086,"ARG_OF_PERICENTER":75.9222,"MEAN_ANOMALY":284.1918,"EPHEMERIS_TYPE":0,"CLASSIFICATION_TYPE":"U","NORAD_CAT_ID":58155,"ELEMENT_SET_NO":999,"REV_AT_EPOCH":10242,"BSTAR":-6.209e-6,"MEAN_MOTION_DOT":-5.43e-6,"MEAN_MOTION_DDOT":0},{"OBJECT_NAME":"STARLINK-30784","OBJECT_ID":"2023-166G","EPOCH":"2025-08-20T20:09:26.470080","MEAN_MOTION":15.30217557,"ECCENTRICITY":0.0001038,"INCLINATION":53.1597,"RA_OF_ASC_NODE":72.8598,"ARG_OF_PERICENTER":71.1974,"MEAN_ANOMALY":288.914,"EPHEMERIS_TYPE":0,"CLASSIFICATION_TYPE":"U","NORAD_CAT_ID":58156,"ELEMENT_SET_NO":999,"REV_AT_EPOCH":10227,"BSTAR":0.00013387,"MEAN_MOTION_DOT":3.61e-5,"MEAN_MOTION_DDOT":0},{"OBJECT_NAME":"STARLINK-30803","OBJECT_ID":"2023-166H","EPOCH":"2025-08-22T12:21:25.899840","MEAN_MOTION":15.30047589,"ECCENTRICITY":0.00010633,"INCLINATION":53.1611,"RA_OF_ASC_NODE":64.8204,"ARG_OF_PERICENTER":141.0987,"MEAN_ANOMALY":219.0091,"EPHEMERIS_TYPE":0,"CLASSIFICATION_TYPE":"U","NORAD_CAT_ID":58157,"ELEMENT_SET_NO":999,"REV_AT_EPOCH":10253,"BSTAR":0.0010245526,"MEAN_MOTION_DOT":0.00029965,"MEAN_MOTION_DDOT":0},{"OBJECT_NAME":"STARLINK-30829","OBJECT_ID":"2023-166J","EPOCH":"2025-08-22T12:45:42.107040","MEAN_MOTION":15.30191958,"ECCENTRICITY":0.00011641,"INCLINATION":53.1604,"RA_OF_ASC_NODE":64.9421,"ARG_OF_PERICENTER":77.0783,"MEAN_ANOMALY":283.0348,"EPHEMERIS_TYPE":0,"CLASSIFICATION_TYPE":"U","NORAD_CAT_ID":58158,"ELEMENT_SET_NO":999,"REV_AT_EPOCH":10268,"BSTAR":3.5727217e-5,"MEAN_MOTION_DOT":6.99e-6,"MEAN_MOTION_DDOT":0},{"OBJECT_NAME":"STARLINK-30788","OBJECT_ID":"2023-166K","EPOCH":"2025-08-20T19:51:12.487104","MEAN_MOTION":15.30198364,"ECCENTRICITY":0.0001272,"INCLINATION":53.1612,"RA_OF_ASC_NODE":72.7948,"ARG_OF_PERICENTER":51.1226,"MEAN_ANOMALY":308.9888,"EPHEMERIS_TYPE":0,"CLASSIFICATION_TYPE":"U","NORAD_CAT_ID":58159,"ELEMENT_SET_NO":999,"REV_AT_EPOCH":10227,"BSTAR":1.3546e-5,"MEAN_MOTION_DOT":4.2e-7,"MEAN_MOTION_DDOT":0},{"OBJECT_NAME":"STARLINK-30779","OBJECT_ID":"2023-166L","EPOCH":"2025-08-20T19:45:08.658432","MEAN_MOTION":15.30187668,"ECCENTRICITY":9.92e-5,"INCLINATION":53.1607,"RA_OF_ASC_NODE":72.7653,"ARG_OF_PERICENTER":75.7805,"MEAN_ANOMALY":284.3306,"EPHEMERIS_TYPE":0,"CLASSIFICATION_TYPE":"U","NORAD_CAT_ID":58160,"ELEMENT_SET_NO":999,"REV_AT_EPOCH":10242,"BSTAR":1.5646e-5,"MEAN_MOTION_DOT":1.04e-6,"MEAN_MOTION_DDOT":0},{"OBJECT_NAME":"STARLINK-30773","OBJECT_ID":"2023-166M","EPOCH":"2025-08-20T20:56:23.353728","MEAN_MOTION":15.30158382,"ECCENTRICITY":0.000115,"INCLINATION":53.1603,"RA_OF_ASC_NODE":72.3427,"ARG_OF_PERICENTER":98.2185,"MEAN_ANOMALY":261.8947,"EPHEMERIS_TYPE":0,"CLASSIFICATION_TYPE":"U","NORAD_CAT_ID":58161,"ELEMENT_SET_NO":999,"REV_AT_EPOCH":10243,"BSTAR":0.00016823,"MEAN_MOTION_DOT":4.62e-5,"MEAN_MOTION_DDOT":0},{"OBJECT_NAME":"STARLINK-30816","OBJECT_ID":"2023-166N","EPOCH":"2025-08-22T13:37:12.504576","MEAN_MOTION":15.30192506,"ECCENTRICITY":9.999e-5,"INCLINATION":53.1597,"RA_OF_ASC_NODE":64.4541,"ARG_OF_PERICENTER":91.613,"MEAN_ANOMALY":268.4985,"EPHEMERIS_TYPE":0,"CLASSIFICATION_TYPE":"U","NORAD_CAT_ID":58162,"ELEMENT_SET_NO":999,"REV_AT_EPOCH":10269,"BSTAR":5.2245113e-5,"MEAN_MOTION_DOT":1.188e-5,"MEAN_MOTION_DDOT":0}]
